[{"OBJECT_NAME":"STARLINK-6222","OBJECT_ID":"2023-064AK","EPOCH":"2026-03-09T13:37:57.880128","MEAN_MOTION":14.98330013,"ECCENTRICITY":0.0003362,"INCLINATION":69.9995,"RA_OF_ASC_NODE":124.6626,"ARG_OF_PERICENTER":270.3889,"MEAN_ANOMALY":89.6885,"EPHEMERIS_TYPE":0,"CLASSIFICATION_TYPE":"U","NORAD_CAT_ID":56481,"ELEMENT_SET_NO":999,"REV_AT_EPOCH":15572,"BSTAR":6.9653e-5,"MEAN_MOTION_DOT":7.38e-6,"MEAN_MOTION_DDOT":0},{"OBJECT_NAME":"PEGASUS R\/B","OBJECT_ID":"2003-004B","EPOCH":"2026-03-09T09:44:27.528288","MEAN_MOTION":14.94290093,"ECCENTRICITY":0.00174311,"INCLINATION":40.0025,"RA_OF_ASC_NODE":325.3337,"ARG_OF_PERICENTER":130.6865,"MEAN_ANOMALY":229.5444,"EPHEMERIS_TYPE":0,"CLASSIFICATION_TYPE":"U","NORAD_CAT_ID":27652,"ELEMENT_SET_NO":999,"REV_AT_EPOCH":25440,"BSTAR":0.00025016623,"MEAN_MOTION_DOT":2.598e-5,"MEAN_MOTION_DDOT":0}]
